NORAD_CAT_ID,OBJECT_NAME,OBJECT_TYPE,EPOCH,MEAN_MOTION,ECCENTRICITY,INCLINATION,RA_OF_ASC_NODE,ARG_OF_PERICENTER,MEAN_ANOMALY,BSTAR,MEAN_MOTION_DOT,MEAN_MOTION_DDOT,TLE_LINE0,TLE_LINE1,TLE_LINE2,SEMIMAJOR_AXIS,PERIOD,APOGEE,PERIGEE,DECAYED
49427.0,STARLINK-3131,PAYLOAD,2023-10-24 07:47:52,15.08848872,0.0001721,53.2153,162.8822,71.9613,288.1566,0.00060653,9.38e-05,0.0,0 STARLINK-3131,1 49427U 21104V   23297.32491769  .00009380  00000-0  60653-3 0  9991,2 49427  53.2153 162.8822 0001721  71.9613 288.1566 15.08848872107694,6917.853,95.437,540.909,538.528,0.0
49427.0,STARLINK-3131,PAYLOAD,2023-10-25 01:17:06,15.08865083,0.0001751,53.2153,159.6119,75.4626,284.656,0.00064815,0.00010049,0.0,0 STARLINK-3131,1 49427U 21104V   23298.05354896  .00010049  00000-0  64815-3 0  9999,2 49427  53.2153 159.6119 0001751  75.4626 284.6560 15.08865083108894,6917.804,95.436,540.88,538.457,0.0
49427.0,STARLINK-3131,PAYLOAD,2023-10-25 21:57:07,15.08847723,0.0001863,53.2153,155.7441,76.7776,283.3424,8.4174e-05,1.052e-05,0.0,0 STARLINK-3131,1 49427U 21104V   23298.91467001  .00001052  00000-0  84174-4 0  9992,2 49427  53.2153 155.7441 0001863  76.7776 283.3424 15.08847723107933,6917.857,95.437,541.011,538.433,0.0
49427.0,STARLINK-3131,PAYLOAD,2023-10-26 01:07:53,15.08846907,0.0001956,53.2158,155.1501,81.4741,278.6473,7.6379e-05,9.28e-06,0.0,0 STARLINK-3131,1 49427U 21104V   23299.04714984  .00000928  00000-0  76379-4 0  9991,2 49427  53.2158 155.1501 0001956  81.4741 278.6473 15.08846907109045,6917.859,95.437,541.077,538.371,0.0
49427.0,STARLINK-3131,PAYLOAD,2023-10-26 21:47:54,15.08845008,0.0001798,53.2155,151.2838,91.3835,268.7363,7.5668e-05,9.17e-06,0.0,0 STARLINK-3131,1 49427U 21104V   23299.90826887  .00000917  00000-0  75668-4 0  9990,2 49427  53.2155 151.2838 0001798  91.3835 268.7363 15.08845008108082,6917.865,95.437,540.974,538.486,0.0
49427.0,STARLINK-3131,PAYLOAD,2023-10-27 07:20:13,15.08845975,0.0001747,53.2153,149.5003,89.5074,270.6118,0.00012866,1.76e-05,0.0,0 STARLINK-3131,1 49427U 21104V   23300.30570857  .00001760  00000-0  12866-3 0  9997,2 49427  53.2153 149.5003 0001747  89.5074 270.6118 15.08845975109233,6917.862,95.437,540.936,538.519,0.0
49427.0,STARLINK-3131,PAYLOAD,2023-10-27 13:41:45,15.08841852,0.0001659,53.2144,148.3113,91.2406,268.8776,0.0001379,1.907e-05,0.0,0 STARLINK-3131,1 49427U 21104V   23300.57067027  .00001907  00000-0  13790-3 0  9996,2 49427  53.2144 148.3113 0001659  91.2406 268.8776 15.08841852108185,6917.875,95.437,540.887,538.592,0.0
49427.0,STARLINK-3131,PAYLOAD,2023-10-27 21:38:41,15.08845875,0.0001552,53.2138,146.8248,89.2029,270.9141,0.00017489,2.497e-05,0.0,0 STARLINK-3131,1 49427U 21104V   23300.90186806  .00002497  00000-0  17489-3 0  9994,2 49427  53.2138 146.8248 0001552  89.2029 270.9141 15.08845875108235,6917.862,95.437,540.801,538.654,0.0
49427.0,STARLINK-3131,PAYLOAD,2023-10-28 07:11:00,15.08837287,0.0001742,53.215,145.0391,91.9563,268.1629,5.474e-05,5.83e-06,0.0,0 STARLINK-3131,1 49427U 21104V   23301.29931276  .00000583  00000-0  54740-4 0  9992,2 49427  53.2150 145.0391 0001742  91.9563 268.1629 15.08837287109388,6917.889,95.438,540.959,538.549,0.0
49427.0,STARLINK-3131,PAYLOAD,2023-10-28 19:54:06,15.0883595,0.0001631,53.2142,142.661,90.7446,269.3733,1.3045e-05,-8e-07,0.0,0 STARLINK-3131,1 49427U 21104V   23301.82923613 -.00000080  00000-0  13045-4 0  9993,2 49427  53.2142 142.6610 0001631  90.7446 269.3733 15.08835950108372,6917.893,95.438,540.886,538.629,0.0
49427.0,STARLINK-3131,PAYLOAD,2023-10-29 13:23:20,15.08845094,0.0001459,53.2154,139.3885,95.1727,264.9432,0.00031729,4.766e-05,0.0,0 STARLINK-3131,1 49427U 21104V   23302.55787296  .00004766  00000-0  31729-3 0  9991,2 49427  53.2154 139.3885 0001459  95.1727 264.9432 15.08845094109571,6917.865,95.437,540.739,538.721,0.0
49427.0,STARLINK-3131,PAYLOAD,2023-10-29 19:44:52,15.08851565,0.0001518,53.216,138.1999,91.8222,268.2944,0.0004065,6.189e-05,0.0,0 STARLINK-3131,1 49427U 21104V   23302.82283082  .00006189  00000-0  40650-3 0  9999,2 49427  53.2160 138.1999 0001518  91.8222 268.2944 15.08851565108529,6917.845,95.437,540.76,538.66,0.0
49427.0,STARLINK-3131,PAYLOAD,2023-10-30 13:14:07,15.08843551,0.0001608,53.2142,134.9288,84.8066,275.311,0.00022406,3.28e-05,0.0,0 STARLINK-3131,1 49427U 21104V   23303.55147421  .00003280  00000-0  22406-3 0  9994,2 49427  53.2142 134.9288 0001608  84.8066 275.3110 15.08843551109725,6917.87,95.437,540.847,538.622,0.0
49427.0,STARLINK-3131,PAYLOAD,2023-10-30 19:35:39,15.08839461,0.0001551,53.2145,133.7394,90.2845,269.8325,2.3951e-05,9.3e-07,0.0,0 STARLINK-3131,1 49427U 21104V   23303.81643384  .00000093  00000-0  23951-4 0  9998,2 49427  53.2145 133.7394 0001551  90.2845 269.8325 15.08839461108670,6917.882,95.438,540.82,538.674,0.0
49427.0,STARLINK-3131,PAYLOAD,2023-10-31 19:26:26,15.0884269,0.0001437,53.2148,129.279,90.2047,269.9109,0.00011789,1.589e-05,0.0,0 STARLINK-3131,1 49427U 21104V   23304.81003455  .00001589  00000-0  11789-3 0  9994,2 49427  53.2148 129.2790 0001437  90.2047 269.9109 15.08842690109917,6917.872,95.437,540.731,538.743,0.0
49427.0,STARLINK-3131,PAYLOAD,2023-11-01 12:55:41,15.08836478,0.0001437,53.2144,126.008,91.2747,268.841,0.0001086,1.441e-05,0.0,0 STARLINK-3131,1 49427U 21104V   23305.53867856  .00001441  00000-0  10860-3 0  9993,2 49427  53.2144 126.0080 0001437  91.2747 268.8410 15.08836478110022,6917.891,95.438,540.75,538.762,0.0
49427.0,STARLINK-3131,PAYLOAD,2023-11-01 19:17:14,15.08842607,0.0001233,53.2153,124.8176,83.3518,276.7615,0.00010503,1.384e-05,0.0,0 STARLINK-3131,1 49427U 21104V   23305.80363757  .00001384  00000-0  10503-3 0  9994,2 49427  53.2153 124.8176 0001233  83.3518 276.7615 15.08842607108973,6917.872,95.437,540.59,538.884,0.0
49427.0,STARLINK-3131,PAYLOAD,2023-11-02 04:49:33,15.08840714,0.0001357,53.2151,123.0342,85.9333,274.1814,0.00015647,2.203e-05,0.0,0 STARLINK-3131,1 49427U 21104V   23306.20107815  .00002203  00000-0  15647-3 0  9995,2 49427  53.2151 123.0342 0001357  85.9333 274.1814 15.08840714109035,6917.878,95.438,540.682,538.804,0.0
49427.0,STARLINK-3131,PAYLOAD,2023-11-02 20:43:24,15.08844254,0.0001374,53.2149,120.0607,86.7692,273.3458,0.00017276,2.463e-05,0.0,0 STARLINK-3131,1 49427U 21104V   23306.86347675  .00002463  00000-0  17276-3 0  9995,2 49427  53.2149 120.0607 0001374  86.7692 273.3458 15.08844254110220,6917.867,95.437,540.683,538.782,0.0
49427.0,STARLINK-3131,PAYLOAD,2023-11-03 12:37:15,15.0884477,0.0001331,53.2147,117.0868,90.1645,269.9499,0.00016228,2.296e-05,0.0,0 STARLINK-3131,1 49427U 21104V   23307.52587651  .00002296  00000-0  16228-3 0  9999,2 49427  53.2147 117.0868 0001331  90.1645 269.9499 15.08844770109231,6917.866,95.437,540.652,538.81,0.0
49427.0,STARLINK-3131,PAYLOAD,2023-11-03 22:09:34,15.08852342,0.0001316,53.2151,115.3027,89.4571,270.6572,0.00033342,5.024e-05,0.0,0 STARLINK-3131,1 49427U 21104V   23307.92331313  .00005024  00000-0  33342-3 0  9993,2 49427  53.2151 115.3027 0001316  89.4571 270.6572 15.08852342109297,6917.843,95.437,540.618,538.797,0.0
49427.0,STARLINK-3131,PAYLOAD,2023-11-04 04:31:07,15.08839565,0.0001446,53.2149,114.1132,87.6028,272.5129,3.2628e-05,2.31e-06,0.0,0 STARLINK-3131,1 49427U 21104V   23308.18827729  .00000231  00000-0  32628-4 0  9995,2 49427  53.2149 114.1132 0001446  87.6028 272.5129 15.08839565110427,6917.882,95.438,540.747,538.746,0.0
49427.0,STARLINK-3131,PAYLOAD,2023-11-04 10:52:39,15.08840107,0.0001578,53.2152,112.9239,87.3839,272.7334,9.918e-05,1.291e-05,0.0,0 STARLINK-3131,1 49427U 21104V   23308.45323922  .00001291  00000-0  99180-4 0  9994,2 49427  53.2152 112.9239 0001578  87.3839 272.7334 15.08840107109374,6917.88,95.438,540.837,538.653,0.0
49427.0,STARLINK-3131,PAYLOAD,2023-11-04 18:49:35,15.08842817,0.0001465,53.2149,111.4365,88.3365,271.7795,0.00012911,1.768e-05,0.0,0 STARLINK-3131,1 49427U 21104V   23308.78443791  .00001768  00000-0  12911-3 0  9992,2 49427  53.2149 111.4365 0001465  88.3365 271.7795 15.08842817109420,6917.872,95.437,540.75,538.723,0.0
49427.0,STARLINK-3131,PAYLOAD,2023-11-05 04:21:54,15.08847743,0.0001413,53.2152,109.6527,88.3551,271.7603,0.00024712,3.648e-05,0.0,0 STARLINK-3131,1 49427U 21104V   23309.18187654  .00003648  00000-0  24712-3 0  9991,2 49427  53.2152 109.6527 0001413  88.3551 271.7603 15.08847743109480,6917.857,95.437,540.699,538.744,0.0
49427.0,STARLINK-3131,PAYLOAD,2023-11-05 17:04:58,15.08854379,0.0001491,53.2152,107.2734,90.603,269.5133,0.0004279,6.531e-05,0.0,0 STARLINK-3131,1 49427U 21104V   23309.71179327  .00006531  00000-0  42790-3 0  9998,2 49427  53.2152 107.2734 0001491  90.6030 269.5133 15.08854379110655,6917.836,95.437,540.733,538.67,0.0
49427.0,STARLINK-3131,PAYLOAD,2023-11-06 13:44:58,15.08860339,0.0001718,53.2148,103.4084,95.4188,264.7,0.00034895,5.273e-05,0.0,0 STARLINK-3131,1 49427U 21104V   23310.57290425  .00005273  00000-0  34895-3 0  9996,2 49427  53.2148 103.4084 0001718  95.4188 264.7000 15.08860339109690,6917.818,95.436,540.872,538.495,0.0
49427.0,STARLINK-3131,PAYLOAD,2023-11-06 16:55:44,15.0886518,0.0001412,53.2148,102.8128,92.3398,267.7756,0.00044061,6.736e-05,0.0,0 STARLINK-3131,1 49427U 21104V   23310.70538148  .00006736  00000-0  44061-3 0  9999,2 49427  53.2148 102.8128 0001412  92.3398 267.7756 15.08865180109715,6917.803,95.436,540.645,538.692,0.0
49427.0,STARLINK-3131,PAYLOAD,2023-11-07 10:25:00,15.08832348,0.0001491,53.2149,99.5403,91.837,268.2793,-0.00020293,-3.515e-05,0.0,0 STARLINK-3131,1 49427U 21104V   23311.43403317 -.00003515  00000-0 -20293-3 0  9994,2 49427  53.2149  99.5403 0001491  91.8370 268.2793 15.08832348110916,6917.904,95.438,540.8,538.737,0.0
49427.0,STARLINK-3131,PAYLOAD,2023-11-07 13:35:46,15.08823123,0.000127,53.2156,98.9436,110.5409,249.572,-0.00037946,-6.319e-05,0.0,0 STARLINK-3131,1 49427U 21104V   23311.56651577 -.00006319  00000-0 -37946-3 0  9999,2 49427  53.2156  98.9436 0001270 110.5409 249.5720 15.08823123109843,6917.932,95.439,540.676,538.918,0.0
